GLOBALSTAR M067         
1 32263U 07048A   25012.70406135 -.00000091  00000+0  46936-4 0  9993
2 32263  51.9720 130.8861 0001176  65.6615  81.4828 12.40664722790183
GLOBALSTAR M070         
1 32264U 07048B   25012.86201968 -.00000051  00000+0  29408-3 0  9998
2 32264  51.9729 241.6863 0001126  81.8651 342.3172 12.62310335794054
GLOBALSTAR M066         
1 32265U 07048C   25012.66570983 -.00000102  00000+0 -33474-4 0  9990
2 32265  51.9667 117.3984 0001235 122.2308  24.3435 12.42169468796057
GLOBALSTAR M079         
1 37188U 10054A   25012.90874480 -.00000062  00000+0  23145-3 0  9993
2 37188  52.0025 252.4821 0000821  54.7609  58.5769 12.62269894656847
GLOBALSTAR M074         
1 37189U 10054B   25012.92651468 -.00000059  00000+0  24731-3 0  9993
2 37189  52.0000 251.7739 0001127  70.6074   3.7597 12.62261745657450
GLOBALSTAR M077         
1 37191U 10054D   25012.85186466 -.00000076  00000+0  15638-3 0  9994
2 37191  52.0042 208.9695 0001113  85.2774 308.8974 12.62269987657531
